COSMOS 1892             
1 18421U 87088A   20286.93304361  .00000625  00000-0  29663-4 0  9997
2 18421  82.5006 157.2808 0015723  23.5291 336.6658 15.17252665802366
SL-14 R/B               
1 18749U 88001B   20286.93916306  .00000066  00000-0  51829-5 0  9993
2 18749  82.5134 247.5281 0017176 271.4037 149.2235 14.83229271749284
COSMOS 1933             
1 18958U 88020A   20286.90814625  .00000399  00000-0  26955-4 0  9994
2 18958  82.5326  12.1697 0013086 109.6623 250.6016 15.03771267752733
SL-3 R/B                
1 19046U 88032B   20287.12050520  .00000322  00000-0  28089-4 0  9993
2 19046  97.4013 302.9460 0038299 163.2633 196.9866 15.02773269754929
SL-16 R/B               
1 19120U 88039B   20286.96315166 -.00000109  00000-0 -28961-4 0  9998
2 19120  71.0115 280.2188 0020109 131.1119 229.1746 14.19206740678329
COSMOS 1953             
1 19210U 88050A   20286.78473419  .00000682  00000-0  44629-4 0  9990
2 19210  82.5144 295.9311 0014458  79.1416 281.1438 15.06042594760454
SL-8 R/B                
1 19257U 88053B   20287.06281740  .00000079  00000-0  34963-4 0  9990
2 19257  74.0478 144.7358 0019426  95.1047  13.4374 14.37484295693182
COSMOS 1975             
1 19573U 88093A   20287.04460254  .00000881  00000-0  60004-4 0  9998
2 19573  82.5188 250.2627 0015498 118.1779 242.1015 15.04941078742337
SL-14 R/B               
1 19574U 88093B   20286.94602336  .00000086  00000-0  74336-5 0  9997
2 19574  82.5294  90.1810 0023111  75.6963  37.5272 14.83339702708282
SL-16 R/B               
1 19650U 88102B   20287.12179691  .00000252  00000-0  15231-3 0  9999
2 19650  71.0013 342.4781 0012813 142.4107 217.7915 14.15794332647815
INTERCOSMOS 24          
1 20261U 89080A   20286.58390677  .00000116  00000-0  28717-4 0  9996
2 20261  82.6006 304.4722 1202711 177.5070 183.2832 12.56136228418295
SL-14 R/B               
1 20262U 89080C   20286.93707423  .00000034  00000-0  50102-5 0  9990
2 20262  82.5980 358.6874 1237231   9.3255 352.8667 12.48946052413220
DELTA 2 R/B(1)          
1 20303U 89085B   20286.91596489  .00001718  00000-0  56639-4 0  9997
2 20303  35.6365 352.3617 0093507 141.3247 219.4222 15.27680780686579
DELTA 1 R/B             
1 20323U 89089B   20286.94149902  .00000017  00000-0  13534-4 0  9998
2 20323  97.1075  54.0808 0070778 220.4310 139.1615 14.48362212609876
ARIANE 40 R/B           
1 20443U 90005H   20287.16685678 -.00000019  00000-0  83481-5 0  9993
2 20443  98.5638 348.7258 0010206 359.0386   1.0779 14.38100819609299
DELTA 2 R/B(1)          
1 20453U 90008B   20286.69449701  .00000662  00000-0  39131-4 0  9994
2 20453  35.6254 284.8908 0280479 203.8515 154.8981 14.85710095628646
COSMOS 2058             
1 20465U 90010A   20286.94307323  .00000219  00000-0  16199-4 0  9998
2 20465  82.4899 160.3008 0015763 159.6277 200.5578 14.98054767645919
SL-14 R/B               
1 20466U 90010B   20286.66863466  .00000075  00000-0  66675-5 0  9998
2 20466  82.5016 317.0819 0019369 315.6269  44.3391 14.81394735636083
SL-14 R/B               
1 20511U 90018B   20286.96075903  .00000075  00000-0  67237-5 0  9996
2 20511  82.5207 263.6976 0019068  92.4029 319.7982 14.80050334630493
HST                     
1 20580U 90037B   20287.25767896  .00000470  00000-0  17563-4 0  9990
2 20580  28.4697 260.4680 0002412 280.5313 202.4398 15.09448515473879
SL-16 R/B               
1 20625U 90046B   20286.88327882  .00000064  00000-0  57779-4 0  9997
2 20625  70.9961 121.7191 0012405  59.5463 300.6883 14.14654693569220
COSMOS 2084             
1 20663U 90055A   20287.06903415 -.00000026  00000-0  15435-4 0  9994
2 20663  62.7936 135.4806 0034258 312.6509  47.1698 14.92122065640914
SL-6 R/B(2)             
1 20666U 90055D   20287.10182058 -.00000060  00000-0  12596-4 0  9997
2 20666  62.7867  51.5121 0062473   3.4109 356.7398 14.92370553642329
SL-8 R/B                
1 20775U 90078B   20286.84274894  .00002214  00000-0  10660-3 0  9994
2 20775  82.9243 129.8154 0571779 190.7994 168.0492 14.34748993522579
SL-8 R/B                
1 21088U 91006B   20286.86871774  .00000031  00000-0  15241-4 0  9992
2 21088  82.9461 197.9227 0022800 159.0222 266.0814 13.77148257492648
OKEAN-3                 
1 21397U 91039A   20286.87257850  .00000203  00000-0  16978-4 0  9994
2 21397  82.5216  65.0764 0018929 133.5917 226.6878 14.92968219569789
COSMOS 2151             
1 21422U 91042A   20286.94617185  .00000130  00000-0  10217-4 0  9995
2 21422  82.5022 171.0924 0013586 194.8164 165.2660 14.92161900568404
SL-14 R/B               
1 21423U 91042B   20286.91596520  .00000077  00000-0  71916-5 0  9996
2 21423  82.4913 267.1106 0016339 231.4014 128.5737 14.79800825561033
ERS-1                   
1 21574U 91050A   20286.88983608  .00000052  00000-0  32147-4 0  9990
2 21574  98.6109 240.3567 0032073 299.1429  60.6549 14.37762168531972
ARIANE 40 R/B           
1 21610U 91050F   20287.17695560  .00000010  00000-0  16842-4 0  9999
2 21610  98.4547 355.1775 0002074 261.3642 151.3266 14.40916243534931
INTERCOSMOS 25          
1 21819U 91086A   20286.88822696  .00000254  00000-0  46501-4 0  9993
2 21819  82.5885  55.9906 1516541  21.8768 344.0545 12.05142738258438
SL-8 R/B                
1 21876U 92008B   20286.79151272  .00000122  00000-0  11040-3 0  9999
2 21876  82.9230 295.2051 0033465 245.2905 288.4320 13.75662827438001
SL-8 R/B                
1 21938U 92020B   20286.24183494  .00000045  00000-0  30406-4 0  9995
2 21938  82.9332 179.8692 0030407  49.1337  62.9061 13.75278178430027
COSMOS 2219             
1 22219U 92076A   20287.10368006  .00000304  00000-0  18555-3 0  9997
2 22219  71.0609 181.9413 0019117 329.9909  30.0116 14.13650771439763
SL-16 R/B               
1 22220U 92076B   20287.03396865 -.00000170  00000-0 -61226-4 0  9992
2 22220  71.0029  24.0681 0014574 230.4109 302.0451 14.16462164442651
COSMOS 2221             
1 22236U 92080A   20286.77312323  .00000147  00000-0  13367-4 0  9996
2 22236  82.5103 352.7989 0015190 294.3368  65.6263 14.87954606486725
SL-16 R/B               
1 22285U 92093B   20287.14135440 -.00000219  00000-0 -88381-4 0  9999
2 22285  71.0217 185.6189 0002089  61.4542 298.6790 14.15045917434265
COSMOS 2228             
1 22286U 92094A   20286.77548861  .00000193  00000-0  18162-4 0  9993
2 22286  82.5178 309.1730 0022380  54.2788 306.0507 14.88173799502965
SL-16 R/B               
1 22566U 93016B   20286.60894689 -.00000287  00000-0 -12389-3 0  9993
2 22566  71.0077  39.8283 0007952  85.9454 274.2578 14.14967026422919
COSMOS 2242             
1 22626U 93024A   20287.16806285  .00000156  00000-0  14210-4 0  9995
2 22626  82.5224 336.9788 0020117  53.4573 306.8492 14.88028245486669
SL-16 R/B               
1 22803U 93059B   20287.16539363 -.00000127  00000-0 -39359-4 0  9991
2 22803  70.9911 211.1971 0018406 329.9538  30.0528 14.16830254400235
ARIANE 40 R/B           
1 22830U 93061H   20287.15251986 -.00000015  00000-0  11333-4 0  9992
2 22830  98.7522 337.3650 0010449 342.6729  17.4096 14.31457172411916
COSMOS 2278             
1 23087U 94023A   20287.12132928  .00000321  00000-0  19414-3 0  9993
2 23087  71.0551 341.7083 0008558 174.8793 185.2418 14.13812743366077
SL-16 R/B               
1 23088U 94023B   20287.13063288 -.00000339  00000-0 -15140-3 0  9990
2 23088  70.9974 254.1216 0001948   7.9962 352.1191 14.14686149367221
SL-16 R/B               
1 23343U 94074B   20287.13061008  .00000008  00000-0  84461-5 0  9993
2 23343  97.9856 339.0064 0007997 125.5933 293.3557 14.76839744395998
SL-16 R/B               
1 23405U 94077B   20287.09946026  .00000109  00000-0  80909-4 0  9996
2 23405  70.9841 183.0999 0004945 276.2933  83.7626 14.15227976337254
ERS-2                   
1 23560U 95021A   20286.74949778  .00000667  00000-0  31880-4 0  9999
2 23560  98.5536  96.4009 0004408 122.1982 237.9679 15.23336465359977
ARIANE 40+ R/B          
1 23561U 95021B   20287.11578299  .00000033  00000-0  26185-4 0  9997
2 23561  98.7125 328.0435 0005861 263.7997 153.6236 14.37986036335700
SL-16 R/B               
1 23705U 95058B   20286.50147600 -.00000297  00000-0 -12819-3 0  9999
2 23705  71.0245   3.3712 0014834 252.3438 107.6065 14.15139368288533
SL-16 R/B               
1 24298U 96051B   20286.50509322 -.00000115  00000-0 -35649-4 0  9990
2 24298  70.8447  23.7767 0017100 188.4163 171.6673 14.12493486242886
ORBVIEW 2 (SEASTAR)     
1 24883U 97037A   20286.86774294  .00000035  00000-0  28805-4 0  9991
2 24883  98.6218  39.6279 0003409 111.6041 248.5507 14.33573861225536
SL-16 R/B               
1 25400U 98043G   20286.58486867 -.00000018  00000-0  10865-4 0  9999
2 25400  98.6137 220.3827 0009932   0.4593 359.6594 14.25462043157707
SL-16 R/B               
1 25407U 98045B   20286.97473499  .00000049  00000-0  49307-4 0  9994
2 25407  71.0141  10.6215 0006790 172.2885 187.8344 14.15831605147982
ISS (ZARYA)             
1 25544U 98067A   20287.09347615  .00000576  00000-0  18428-4 0  9999
2 25544  51.6446 125.0696 0001433  27.0371 118.9673 15.49299288250298
SL-8 R/B                
1 25723U 99022C   20286.48688094  .00023702  00000-0  13540-3 0  9996
2 25723  48.4112  79.4531 0005564 222.3207 137.7319 15.78640923196123
CZ-4B R/B               
1 25732U 99025C   20287.12667174 -.00000016  00000-0  14573-4 0  9999
2 25732  98.9354 316.6242 0036524 234.2610 195.2304 14.17681771108636
OKEAN-O                 
1 25860U 99039A   20286.80473746  .00000050  00000-0  14823-4 0  9995
2 25860  98.2091 307.8154 0001115 115.7824 244.3500 14.76682287142923
SL-16 R/B               
1 25861U 99039B   20286.76588508  .00000013  00000-0  92993-5 0  9998
2 25861  98.2112 291.2532 0016509 137.6234  35.5347 14.78594218144957
DELTA 2 R/B             
1 25876U 99041E   20287.13724349 -.00000052  00000-0  31258-4 0  9994
2 25876  51.7660 205.7651 0531019 327.4001  29.5147 14.04468606 85186
